CCSDS_OMM_VERS = 2.0
CREATION_DATE  = 
ORIGINATOR     = 

OBJECT_NAME    = STARLINK-36473
OBJECT_ID      = 2026-002W
CENTER_NAME    = EARTH
REF_FRAME      = TEME
TIME_SYSTEM    = UTC
MEAN_ELEMENT_THEORY = SGP/SGP4

EPOCH          = 2026-01-26T06:00:02.000160
MEAN_MOTION    = 15.63663066
ECCENTRICITY   = .00015705
INCLINATION    = 42.9996
RA_OF_ASC_NODE = 207.3543
ARG_OF_PERICENTER = 260.9421
MEAN_ANOMALY   = 348.1972

EPHEMERIS_TYPE = 0
CLASSIFICATION_TYPE = U
NORAD_CAT_ID   = 67325
ELEMENT_SET_NO = 999
REV_AT_EPOCH   = 475
BSTAR          = -.24855738E-1
MEAN_MOTION_DOT = -.2081378E-1
MEAN_MOTION_DDOT = 0

CCSDS_OMM_VERS = 2.0
CREATION_DATE  = 
ORIGINATOR     = 

OBJECT_NAME    = STARLINK-36430
OBJECT_ID      = 2026-002X
CENTER_NAME    = EARTH
REF_FRAME      = TEME
TIME_SYSTEM    = UTC
MEAN_ELEMENT_THEORY = SGP/SGP4

EPOCH          = 2026-01-26T06:00:02.000160
MEAN_MOTION    = 15.63665699
ECCENTRICITY   = .00015619
INCLINATION    = 42.9996
RA_OF_ASC_NODE = 207.3399
ARG_OF_PERICENTER = 265.1011
MEAN_ANOMALY   = 349.7855

EPHEMERIS_TYPE = 0
CLASSIFICATION_TYPE = U
NORAD_CAT_ID   = 67326
ELEMENT_SET_NO = 999
REV_AT_EPOCH   = 475
BSTAR          = -.24875769E-1
MEAN_MOTION_DOT = -.2083022E-1
MEAN_MOTION_DDOT = 0

CCSDS_OMM_VERS = 2.0
CREATION_DATE  = 
ORIGINATOR     = 

OBJECT_NAME    = STARLINK-36501
OBJECT_ID      = 2026-002Y
CENTER_NAME    = EARTH
REF_FRAME      = TEME
TIME_SYSTEM    = UTC
MEAN_ELEMENT_THEORY = SGP/SGP4

EPOCH          = 2026-01-23T20:23:48.628896
MEAN_MOTION    = 15.74765594
ECCENTRICITY   = .00042463
INCLINATION    = 42.9991
RA_OF_ASC_NODE = 221.7697
ARG_OF_PERICENTER = 138.9671
MEAN_ANOMALY   = 221.1518

EPHEMERIS_TYPE = 0
CLASSIFICATION_TYPE = U
NORAD_CAT_ID   = 67327
ELEMENT_SET_NO = 999
REV_AT_EPOCH   = 418
BSTAR          = .1209596E-2
MEAN_MOTION_DOT = .187321E-2
MEAN_MOTION_DDOT = 0

CCSDS_OMM_VERS = 2.0
CREATION_DATE  = 
ORIGINATOR     = 

OBJECT_NAME    = STARLINK-36489
OBJECT_ID      = 2026-002Z
CENTER_NAME    = EARTH
REF_FRAME      = TEME
TIME_SYSTEM    = UTC
MEAN_ELEMENT_THEORY = SGP/SGP4

EPOCH          = 2026-01-26T06:00:02.000160
MEAN_MOTION    = 15.63665316
ECCENTRICITY   = .00016331
INCLINATION    = 42.9998
RA_OF_ASC_NODE = 207.3358
ARG_OF_PERICENTER = 261.1711
MEAN_ANOMALY   = 355.6324

EPHEMERIS_TYPE = 0
CLASSIFICATION_TYPE = U
NORAD_CAT_ID   = 67328
ELEMENT_SET_NO = 999
REV_AT_EPOCH   = 475
BSTAR          = -.24857619E-1
MEAN_MOTION_DOT = -.2081731E-1
MEAN_MOTION_DDOT = 0

CCSDS_OMM_VERS = 2.0
CREATION_DATE  = 
ORIGINATOR     = 

OBJECT_NAME    = STARLINK-36496
OBJECT_ID      = 2026-002AA
CENTER_NAME    = EARTH
REF_FRAME      = TEME
TIME_SYSTEM    = UTC
MEAN_ELEMENT_THEORY = SGP/SGP4

EPOCH          = 2026-01-26T06:00:02.000160
MEAN_MOTION    = 15.63663905
ECCENTRICITY   = .00017068
INCLINATION    = 42.9995
RA_OF_ASC_NODE = 207.3247
ARG_OF_PERICENTER = 260.6488
MEAN_ANOMALY   = 359.9933

EPHEMERIS_TYPE = 0
CLASSIFICATION_TYPE = U
NORAD_CAT_ID   = 67329
ELEMENT_SET_NO = 999
REV_AT_EPOCH   = 457
BSTAR          = -.24889753E-1
MEAN_MOTION_DOT = -.2084035E-1
MEAN_MOTION_DDOT = 0

CCSDS_OMM_VERS = 2.0
CREATION_DATE  = 
ORIGINATOR     = 

OBJECT_NAME    = STARLINK-36483
OBJECT_ID      = 2026-002AB
CENTER_NAME    = EARTH
REF_FRAME      = TEME
TIME_SYSTEM    = UTC
MEAN_ELEMENT_THEORY = SGP/SGP4

EPOCH          = 2026-01-26T06:00:02.000160
MEAN_MOTION    = 15.63662126
ECCENTRICITY   = .00017044
INCLINATION    = 42.9994
RA_OF_ASC_NODE = 207.3152
ARG_OF_PERICENTER = 263.2256
MEAN_ANOMALY   = 1.2487

EPHEMERIS_TYPE = 0
CLASSIFICATION_TYPE = U
NORAD_CAT_ID   = 67330
ELEMENT_SET_NO = 999
REV_AT_EPOCH   = 475
BSTAR          = -.24829852E-1
MEAN_MOTION_DOT = -.2079535E-1
MEAN_MOTION_DDOT = 0

CCSDS_OMM_VERS = 2.0
CREATION_DATE  = 
ORIGINATOR     = 

OBJECT_NAME    = STARLINK-36494
OBJECT_ID      = 2026-002AC
CENTER_NAME    = EARTH
REF_FRAME      = TEME
TIME_SYSTEM    = UTC
MEAN_ELEMENT_THEORY = SGP/SGP4

EPOCH          = 2026-01-26T06:00:02.000160
MEAN_MOTION    = 15.63662887
ECCENTRICITY   = .00016277
INCLINATION    = 42.9998
RA_OF_ASC_NODE = 207.3298
ARG_OF_PERICENTER = 262.2570
MEAN_ANOMALY   = 356.4660

EPHEMERIS_TYPE = 0
CLASSIFICATION_TYPE = U
NORAD_CAT_ID   = 67331
ELEMENT_SET_NO = 999
REV_AT_EPOCH   = 475
BSTAR          = -.24835036E-1
MEAN_MOTION_DOT = -.2079902E-1
MEAN_MOTION_DDOT = 0

CCSDS_OMM_VERS = 2.0
CREATION_DATE  = 
ORIGINATOR     = 

OBJECT_NAME    = STARLINK-36492
OBJECT_ID      = 2026-002AD
CENTER_NAME    = EARTH
REF_FRAME      = TEME
TIME_SYSTEM    = UTC
MEAN_ELEMENT_THEORY = SGP/SGP4

EPOCH          = 2026-01-26T06:00:02.000160
MEAN_MOTION    = 15.63668506
ECCENTRICITY   = .00015885
INCLINATION    = 42.9995
RA_OF_ASC_NODE = 207.3205
ARG_OF_PERICENTER = 261.4328
MEAN_ANOMALY   = 1.1218

EPHEMERIS_TYPE = 0
CLASSIFICATION_TYPE = U
NORAD_CAT_ID   = 67332
ELEMENT_SET_NO = 999
REV_AT_EPOCH   = 475
BSTAR          = -.24923651E-1
MEAN_MOTION_DOT = -.208674E-1
MEAN_MOTION_DDOT = 0

CCSDS_OMM_VERS = 2.0
CREATION_DATE  = 
ORIGINATOR     = 

OBJECT_NAME    = STARLINK-36427
OBJECT_ID      = 2026-002AE
CENTER_NAME    = EARTH
REF_FRAME      = TEME
TIME_SYSTEM    = UTC
MEAN_ELEMENT_THEORY = SGP/SGP4

EPOCH          = 2026-01-26T06:00:02.000160
MEAN_MOTION    = 15.51422352
ECCENTRICITY   = .00014137
INCLINATION    = 42.9995
RA_OF_ASC_NODE = 207.0998
ARG_OF_PERICENTER = 267.2382
MEAN_ANOMALY   = 78.1430

EPHEMERIS_TYPE = 0
CLASSIFICATION_TYPE = U
NORAD_CAT_ID   = 67333
ELEMENT_SET_NO = 999
REV_AT_EPOCH   = 465
BSTAR          = -.22384416E-1
MEAN_MOTION_DOT = -.1230443E-1
MEAN_MOTION_DDOT = 0

CCSDS_OMM_VERS = 2.0
CREATION_DATE  = 
ORIGINATOR     = 

OBJECT_NAME    = STARLINK-35343
OBJECT_ID      = 2026-003A
CENTER_NAME    = EARTH
REF_FRAME      = TEME
TIME_SYSTEM    = UTC
MEAN_ELEMENT_THEORY = SGP/SGP4

EPOCH          = 2026-01-26T06:00:02.000160
MEAN_MOTION    = 15.74974918
ECCENTRICITY   = .00013943
INCLINATION    = 42.9988
RA_OF_ASC_NODE = 110.4923
ARG_OF_PERICENTER = 246.6722
MEAN_ANOMALY   = 354.6613

EPHEMERIS_TYPE = 0
CLASSIFICATION_TYPE = U
NORAD_CAT_ID   = 67334
ELEMENT_SET_NO = 999
REV_AT_EPOCH   = 379
BSTAR          = .49095546E-3
MEAN_MOTION_DOT = .75401E-3
MEAN_MOTION_DDOT = 0

CCSDS_OMM_VERS = 2.0
CREATION_DATE  = 
ORIGINATOR     = 

OBJECT_NAME    = STARLINK-36486
OBJECT_ID      = 2026-003B
CENTER_NAME    = EARTH
REF_FRAME      = TEME
TIME_SYSTEM    = UTC
MEAN_ELEMENT_THEORY = SGP/SGP4

EPOCH          = 2026-01-26T06:00:02.000160
MEAN_MOTION    = 15.74973591
ECCENTRICITY   = .00012113
INCLINATION    = 42.9987
RA_OF_ASC_NODE = 110.4880
ARG_OF_PERICENTER = 260.1153
MEAN_ANOMALY   = 343.1245

EPHEMERIS_TYPE = 0
CLASSIFICATION_TYPE = U
NORAD_CAT_ID   = 67335
ELEMENT_SET_NO = 999
REV_AT_EPOCH   = 385
BSTAR          = .69920485E-3
MEAN_MOTION_DOT = .107999E-2
MEAN_MOTION_DDOT = 0

CCSDS_OMM_VERS = 2.0
CREATION_DATE  = 
ORIGINATOR     = 

OBJECT_NAME    = STARLINK-36480
OBJECT_ID      = 2026-003C
CENTER_NAME    = EARTH
REF_FRAME      = TEME
TIME_SYSTEM    = UTC
MEAN_ELEMENT_THEORY = SGP/SGP4

EPOCH          = 2026-01-26T06:00:02.000160
MEAN_MOTION    = 15.74960728
ECCENTRICITY   = .00013185
INCLINATION    = 42.9987
RA_OF_ASC_NODE = 110.4832
ARG_OF_PERICENTER = 267.0313
MEAN_ANOMALY   = 338.1399

EPHEMERIS_TYPE = 0
CLASSIFICATION_TYPE = U
NORAD_CAT_ID   = 67336
ELEMENT_SET_NO = 999
REV_AT_EPOCH   = 385
BSTAR          = .72832051E-3
MEAN_MOTION_DOT = .112514E-2
MEAN_MOTION_DDOT = 0

CCSDS_OMM_VERS = 2.0
CREATION_DATE  = 
ORIGINATOR     = 

OBJECT_NAME    = STARLINK-36410
OBJECT_ID      = 2026-003D
CENTER_NAME    = EARTH
REF_FRAME      = TEME
TIME_SYSTEM    = UTC
MEAN_ELEMENT_THEORY = SGP/SGP4

EPOCH          = 2026-01-26T06:00:02.000160
MEAN_MOTION    = 15.74958643
ECCENTRICITY   = .00015264
INCLINATION    = 42.9989
RA_OF_ASC_NODE = 110.4783
ARG_OF_PERICENTER = 298.1227
MEAN_ANOMALY   = 308.9645

EPHEMERIS_TYPE = 0
CLASSIFICATION_TYPE = U
NORAD_CAT_ID   = 67337
ELEMENT_SET_NO = 999
REV_AT_EPOCH   = 385
BSTAR          = .79484036E-3
MEAN_MOTION_DOT = .122978E-2
MEAN_MOTION_DDOT = 0

CCSDS_OMM_VERS = 2.0
CREATION_DATE  = 
ORIGINATOR     = 

OBJECT_NAME    = STARLINK-36413
OBJECT_ID      = 2026-003E
CENTER_NAME    = EARTH
REF_FRAME      = TEME
TIME_SYSTEM    = UTC
MEAN_ELEMENT_THEORY = SGP/SGP4

EPOCH          = 2026-01-26T06:00:02.000160
MEAN_MOTION    = 15.74960574
ECCENTRICITY   = .00012541
INCLINATION    = 42.9988
RA_OF_ASC_NODE = 110.4733
ARG_OF_PERICENTER = 256.9159
MEAN_ANOMALY   = 352.0909

EPHEMERIS_TYPE = 0
CLASSIFICATION_TYPE = U
NORAD_CAT_ID   = 67338
ELEMENT_SET_NO = 999
REV_AT_EPOCH   = 385
BSTAR          = .73929899E-3
MEAN_MOTION_DOT = .11424E-2
MEAN_MOTION_DDOT = 0

CCSDS_OMM_VERS = 2.0
CREATION_DATE  = 
ORIGINATOR     = 

OBJECT_NAME    = STARLINK-36451
OBJECT_ID      = 2026-003F
CENTER_NAME    = EARTH
REF_FRAME      = TEME
TIME_SYSTEM    = UTC
MEAN_ELEMENT_THEORY = SGP/SGP4

EPOCH          = 2026-01-26T06:00:02.000160
MEAN_MOTION    = 15.74966245
ECCENTRICITY   = .00011943
INCLINATION    = 42.9987
RA_OF_ASC_NODE = 110.4682
ARG_OF_PERICENTER = 257.6941
MEAN_ANOMALY   = 353.2155

EPHEMERIS_TYPE = 0
CLASSIFICATION_TYPE = U
NORAD_CAT_ID   = 67339
ELEMENT_SET_NO = 999
REV_AT_EPOCH   = 385
BSTAR          = .85956774E-3
MEAN_MOTION_DOT = .133237E-2
MEAN_MOTION_DDOT = 0

